OBJECT_NAME,OBJECT_ID,EPOCH,MEAN_MOTION,ECCENTRICITY,INCLINATION,RA_OF_ASC_NODE,ARG_OF_PERICENTER,MEAN_ANOMALY,EPHEMERIS_TYPE,CLASSIFICATION_TYPE,NORAD_CAT_ID,ELEMENT_SET_NO,REV_AT_EPOCH,BSTAR,MEAN_MOTION_DOT,MEAN_MOTION_DDOT
STARLINK-1968,2021-009X,2022-05-17T03:48:14.666112,15.55557400,.0005898,53.0622,95.7935,98.8154,261.3525,0,U,47569,999,7232,.75104E-3,.52213E-3,0
STARLINK-1969,2021-009Y,2022-05-17T04:29:19.232160,15.06403963,.0001916,53.0530,132.7994,45.5487,314.5658,0,U,47570,999,7180,.1575E-3,.2065E-4,0
STARLINK-1970,2021-009Z,2022-05-16T17:35:08.894112,15.06399603,.0001937,53.0539,144.8479,48.9420,311.1736,0,U,47571,999,7098,.96571E-4,.1157E-4,0
STARLINK-1971,2021-009AA,2022-05-16T17:08:36.612096,15.06398689,.000201,53.0547,144.9411,49.3191,310.7972,0,U,47572,999,7098,-.77759E-4,-.144E-4,0
STARLINK-1975,2021-009AB,2022-05-17T03:45:32.050080,15.06401618,.0002014,53.0557,142.9547,47.1480,312.9678,0,U,47573,999,7164,.89038E-4,.1045E-4,0
STARLINK-1976,2021-009AC,2022-05-16T20:10:23.666880,15.06399994,.000189,53.0537,174.3647,47.6045,312.5104,0,U,47574,999,7057,.60507E-4,.62E-5,0
STARLINK-1977,2021-009AD,2022-05-16T19:54:28.121760,15.06399979,.0001969,53.0554,174.4189,51.5044,308.6121,0,U,47575,999,7057,.1423E-3,.1838E-4,0
STARLINK-1978,2021-009AE,2022-05-16T17:31:09.165216,15.06415160,.0002302,53.0544,134.8594,46.8652,313.2529,0,U,47576,999,7112,.19931E-3,.2689E-4,0
STARLINK-1979,2021-009AF,2022-05-16T18:30:12.320352,15.06402123,.0002023,53.0538,149.6769,51.4356,308.6814,0,U,47577,999,7092,-.55887E-4,-.1114E-4,0
STARLINK-1980,2021-009AG,2022-05-17T02:19:17.451264,15.06400828,.0002012,53.0538,153.2132,50.2613,309.8553,0,U,47578,999,7149,.1372E-3,.1763E-4,0
STARLINK-1981,2021-009AH,2022-05-16T17:56:22.488000,15.06400063,.0002326,53.0555,144.7906,40.9582,319.1581,0,U,47579,999,7098,.16496E-3,.2176E-4,0
STARLINK-1982,2021-009AJ,2022-05-16T18:26:53.939904,15.06393897,.0001987,53.0554,154.6952,42.2024,317.9117,0,U,47580,999,7084,.89485E-4,.1051E-4,0
STARLINK-1984,2021-009AK,2022-05-17T05:06:28.693440,15.06391699,.0001869,53.0536,132.6966,51.8116,308.3041,0,U,47581,999,7180,-.44923E-4,-.951E-5,0
STARLINK-1986,2021-009AL,2022-05-16T09:41:25.041120,15.06388909,.0002325,53.0525,156.3319,32.8849,327.2284,0,U,47582,999,7079,-.13464E-3,-.2286E-4,0
STARLINK-1987,2021-009AM,2022-05-16T18:42:49.583520,15.06393609,.0001733,53.0542,154.6318,54.3513,305.7637,0,U,47583,999,7085,-.35732E-4,-.814E-5,0
STARLINK-1989,2021-009AP,2022-05-16T17:44:25.742112,15.06400483,.0002475,53.0554,154.8249,34.4783,325.6367,0,U,47585,999,7084,.18835E-3,.2525E-4,0
STARLINK-1990,2021-009AQ,2022-05-16T14:09:28.713024,15.06392107,.0001886,53.0550,175.4917,46.6861,313.4285,0,U,47586,999,7054,-.89913E-4,-.162E-4,0
STARLINK-1991,2021-009AR,2022-05-17T04:22:41.427552,15.06396773,.0001857,53.0532,142.8375,50.1858,309.9295,0,U,47587,999,7165,.2204E-4,.47E-6,0
STARLINK-1993,2021-009AS,2022-05-17T02:35:12.469344,15.06392476,.0001743,53.0538,153.1533,52.6227,307.4920,0,U,47588,999,7151,.72834E-4,.803E-5,0
STARLINK-1994,2021-009AT,2022-05-16T07:55:16.227552,15.06397368,.0002035,53.0531,156.6602,45.8694,314.2462,0,U,47589,999,7078,.7613E-4,.852E-5,0
STARLINK-1995,2021-009AU,2022-05-16T14:04:09.302592,15.06402485,.0001919,53.0560,175.5149,43.2398,316.8741,0,U,47590,999,7054,.13029E-3,.166E-4,0
STARLINK-1996,2021-009AV,2022-05-16T12:36:34.862400,15.06398463,.0001916,53.0536,155.7884,49.4772,310.6384,0,U,47591,999,7141,.20208E-3,.2729E-4,0
STARLINK-1997,2021-009AW,2022-05-16T19:43:51.381408,15.06398125,.0001825,53.0529,174.4533,54.2490,305.8668,0,U,47592,999,7057,.65673E-4,.697E-5,0
STARLINK-1998,2021-009AX,2022-05-16T19:01:24.229920,15.06400509,.0001999,53.0536,174.5693,39.5535,320.5599,0,U,47593,999,7057,.28254E-3,.3929E-4,0
STARLINK-1999,2021-009AY,2022-05-16T19:49:10.036704,15.06397565,.0002088,53.0527,174.4395,39.5889,320.5252,0,U,47594,999,7057,.37549E-4,.278E-5,0
STARLINK-2000,2021-009AZ,2022-05-16T19:27:56.046240,15.06397830,.0001786,53.0526,174.4997,53.0573,307.0579,0,U,47595,999,7057,.65022E-4,.687E-5,0
STARLINK-2001,2021-009BA,2022-05-17T01:55:24.083904,15.06397906,.0001931,53.0531,173.2868,49.2763,310.8393,0,U,47596,999,7121,.75947E-4,.85E-5,0
STARLINK-2002,2021-009BB,2022-05-16T19:22:37.605216,15.06396467,.00021,53.0537,174.5143,46.2072,313.9091,0,U,47597,999,7057,.13378E-3,.1711E-4,0
STARLINK-2003,2021-009BC,2022-05-16T10:03:58.961088,15.06396509,.0001862,53.0534,146.2602,38.3128,321.7993,0,U,47598,999,7094,.16299E-3,.2147E-4,0
STARLINK-2004,2021-009BD,2022-05-16T11:24:55.850688,15.06396654,.0002071,53.0532,136.0061,49.4768,310.6402,0,U,47599,999,7169,.14306E-4,-.69E-6,0
