STARLINK-1968           
1 47569U 21009X   22137.15850308  .00052213  00000+0  75104-3 0  9990
2 47569  53.0622  95.7935 0005898  98.8154 261.3525 15.55557400 72329
STARLINK-1969           
1 47570U 21009Y   22137.18702815  .00002065  00000+0  15750-3 0  9995
2 47570  53.0530 132.7994 0001916  45.5487 314.5658 15.06403963 71801
STARLINK-1970           
1 47571U 21009Z   22136.73274183  .00001157  00000+0  96571-4 0  9990
2 47571  53.0539 144.8479 0001937  48.9420 311.1736 15.06399603 70983
STARLINK-1971           
1 47572U 21009AA  22136.71431264 -.00001440  00000+0 -77759-4 0  9998
2 47572  53.0547 144.9411 0002010  49.3191 310.7972 15.06398689 70983
STARLINK-1975           
1 47573U 21009AB  22137.15662095  .00001045  00000+0  89038-4 0  9998
2 47573  53.0557 142.9547 0002014  47.1480 312.9678 15.06401618 71642
STARLINK-1976           
1 47574U 21009AC  22136.84055170  .00000620  00000+0  60507-4 0  9992
2 47574  53.0537 174.3647 0001890  47.6045 312.5104 15.06399994 70578
STARLINK-1977           
1 47575U 21009AD  22136.82949215  .00001838  00000+0  14230-3 0  9996
2 47575  53.0554 174.4189 0001969  51.5044 308.6121 15.06399979 70578
STARLINK-1978           
1 47576U 21009AE  22136.72996719  .00002689  00000+0  19931-3 0  9995
2 47576  53.0544 134.8594 0002302  46.8652 313.2529 15.06415160 71129
STARLINK-1979           
1 47577U 21009AF  22136.77097593 -.00001114  00000+0 -55887-4 0  9998
2 47577  53.0538 149.6769 0002023  51.4356 308.6814 15.06402123 70921
STARLINK-1980           
1 47578U 21009AG  22137.09672976  .00001763  00000+0  13720-3 0  9996
2 47578  53.0538 153.2132 0002012  50.2613 309.8553 15.06400828 71494
STARLINK-1981           
1 47579U 21009AH  22136.74748250  .00002176  00000+0  16496-3 0  9999
2 47579  53.0555 144.7906 0002326  40.9582 319.1581 15.06400063 70986
STARLINK-1982           
1 47580U 21009AJ  22136.76867986  .00001051  00000+0  89485-4 0  9991
2 47580  53.0554 154.6952 0001987  42.2024 317.9117 15.06393897 70848
STARLINK-1984           
1 47581U 21009AK  22137.21283210 -.00000951  00000+0 -44923-4 0  9993
2 47581  53.0536 132.6966 0001869  51.8116 308.3041 15.06391699 71802
STARLINK-1986           
1 47582U 21009AL  22136.40376205 -.00002286  00000+0 -13464-3 0  9999
2 47582  53.0525 156.3319 0002325  32.8849 327.2284 15.06388909 70792
STARLINK-1987           
1 47583U 21009AM  22136.77974055 -.00000814  00000+0 -35732-4 0  9995
2 47583  53.0542 154.6318 0001733  54.3513 305.7637 15.06393609 70854
STARLINK-1989           
1 47585U 21009AP  22136.73918683  .00002525  00000+0  18835-3 0  9991
2 47585  53.0554 154.8249 0002475  34.4783 325.6367 15.06400483 70845
STARLINK-1990           
1 47586U 21009AQ  22136.58991566 -.00001620  00000+0 -89913-4 0  9999
2 47586  53.0550 175.4917 0001886  46.6861 313.4285 15.06392107 70544
STARLINK-1991           
1 47587U 21009AR  22137.18242393  .00000047  00000+0  22040-4 0  9992
2 47587  53.0532 142.8375 0001857  50.1858 309.9295 15.06396773 71652
STARLINK-1993           
1 47588U 21009AS  22137.10778321  .00000803  00000+0  72834-4 0  9996
2 47588  53.0538 153.1533 0001743  52.6227 307.4920 15.06392476 71510
STARLINK-1994           
1 47589U 21009AT  22136.33004893  .00000852  00000+0  76130-4 0  9994
2 47589  53.0531 156.6602 0002035  45.8694 314.2462 15.06397368 70786
STARLINK-1995           
1 47590U 21009AU  22136.58621878  .00001660  00000+0  13029-3 0  9996
2 47590  53.0560 175.5149 0001919  43.2398 316.8741 15.06402485 70548
STARLINK-1996           
1 47591U 21009AV  22136.52540350  .00002729  00000+0  20208-3 0  9990
2 47591  53.0536 155.7884 0001916  49.4772 310.6384 15.06398463 71411
STARLINK-1997           
1 47592U 21009AW  22136.82212247  .00000697  00000+0  65673-4 0  9993
2 47592  53.0529 174.4533 0001825  54.2490 305.8668 15.06398125 70575
STARLINK-1998           
1 47593U 21009AX  22136.79264155  .00003929  00000+0  28254-3 0  9999
2 47593  53.0536 174.5693 0001999  39.5535 320.5599 15.06400509 70577
STARLINK-1999           
1 47594U 21009AY  22136.82581061  .00000278  00000+0  37549-4 0  9994
2 47594  53.0527 174.4395 0002088  39.5889 320.5252 15.06397565 70571
STARLINK-2000           
1 47595U 21009AZ  22136.81106535  .00000687  00000+0  65022-4 0  9994
2 47595  53.0526 174.4997 0001786  53.0573 307.0579 15.06397830 70571
STARLINK-2001           
1 47596U 21009BA  22137.08013986  .00000850  00000+0  75947-4 0  9991
2 47596  53.0531 173.2868 0001931  49.2763 310.8393 15.06397906 71214
STARLINK-2002           
1 47597U 21009BB  22136.80737969  .00001711  00000+0  13378-3 0  9991
2 47597  53.0537 174.5143 0002100  46.2072 313.9091 15.06396467 70578
STARLINK-2003           
1 47598U 21009BC  22136.41943242  .00002147  00000+0  16299-3 0  9991
2 47598  53.0534 146.2602 0001862  38.3128 321.7993 15.06396509 70946
STARLINK-2004           
1 47599U 21009BD  22136.47564642 -.00000069  00000+0  14306-4 0  9991
2 47599  53.0532 136.0061 0002071  49.4768 310.6402 15.06396654 71693
